{
    "links": {
        "self": "http://www.neowsapp.com/rest/v1/neo/3694989?api_key=iIulBulltgU6a56xZRHN4H3l9WmuAYTsLGpBGhQ2"
    },
    "id": "3694989",
    "neo_reference_id": "3694989",
    "name": "(2014 UX116)",
    "designation": "2014 UX116",
    "nasa_jpl_url": "http://ssd.jpl.nasa.gov/sbdb.cgi?sstr=3694989",
    "absolute_magnitude_h": 24.8,
    "estimated_diameter": {
        "kilometers": {
            "estimated_diameter_min": 0.0291443905,
            "estimated_diameter_max": 0.0651688382
        },
        "meters": {
            "estimated_diameter_min": 29.1443904535,
            "estimated_diameter_max": 65.1688382168
        },
        "miles": {
            "estimated_diameter_min": 0.018109479,
            "estimated_diameter_max": 0.0404940262
        },
        "feet": {
            "estimated_diameter_min": 95.6180819754,
            "estimated_diameter_max": 213.8085311752
        }
    },
    "is_potentially_hazardous_asteroid": false,
    "close_approach_data": [
        {
            "close_approach_date": "2012-10-23",
            "close_approach_date_full": "2012-Oct-23 12:18",
            "epoch_date_close_approach": 1350994680000,
            "relative_velocity": {
                "kilometers_per_second": "10.987928066",
                "kilometers_per_hour": "39556.5410376997",
                "miles_per_hour": "24578.8962908974"
            },
            "miss_distance": {
                "astronomical": "0.3569306374",
                "lunar": "138.8460179486",
                "kilometers": "53396063.092782338",
                "miles": "33178775.0856107444"
            },
            "orbiting_body": "Earth"
        },
        {
            "close_approach_date": "2014-10-10",
            "close_approach_date_full": "2014-Oct-10 13:38",
            "epoch_date_close_approach": 1412948280000,
            "relative_velocity": {
                "kilometers_per_second": "4.0232444163",
                "kilometers_per_hour": "14483.6798986215",
                "miles_per_hour": "8999.5954347851"
            },
            "miss_distance": {
                "astronomical": "0.1003504395",
                "lunar": "39.0363209655",
                "kilometers": "15012212.002763865",
                "miles": "9328155.986176737"
            },
            "orbiting_body": "Earth"
        },
        {
            "close_approach_date": "2016-09-16",
            "close_approach_date_full": "2016-Sep-16 04:00",
            "epoch_date_close_approach": 1473998400000,
            "relative_velocity": {
                "kilometers_per_second": "11.9584941539",
                "kilometers_per_hour": "43050.578953999",
                "miles_per_hour": "26749.9555728334"
            },
            "miss_distance": {
                "astronomical": "0.4078773174",
                "lunar": "158.6642764686",
                "kilometers": "61017577.904353938",
                "miles": "37914564.7880348244"
            },
            "orbiting_body": "Earth"
        }
    ],
    "orbital_data": {
        "orbit_id": "8",
        "orbit_determination_date": "2017-04-06 08:37:45",
        "first_observation_date": "2014-10-28",
        "last_observation_date": "2014-11-26",
        "data_arc_in_days": 29,
        "observations_used": 29,
        "orbit_uncertainty": "7",
        "minimum_orbit_intersection": ".0976414",
        "jupiter_tisserand_invariant": "4.381",
        "epoch_osculation": "2459000.5",
        "eccentricity": ".2988125522890249",
        "semi_major_axis": "1.556916319715877",
        "inclination": "5.716226017351009",
        "ascending_node_longitude": "32.09708856349386",
        "orbital_period": "709.5717771526622",
        "perihelion_distance": "1.09169018052114",
        "perihelion_argument": "343.4944947128132",
        "aphelion_distance": "2.022142458910613",
        "perihelion_time": "2459067.141831695880",
        "mean_anomaly": "326.1893832548031",
        "mean_motion": ".5073482508627836",
        "equinox": "J2000",
        "orbit_class": {
            "orbit_class_type": "AMO",
            "orbit_class_description": "Near-Earth asteroid orbits similar to that of 1221 Amor",
            "orbit_class_range": "1.017 AU < q (perihelion) < 1.3 AU"
        }
    },
    "is_sentry_object": false
}